[{"OBJECT_NAME":"BUFENG 1A","OBJECT_ID":"2019-032A","EPOCH":"2026-03-09T22:03:27.507168","MEAN_MOTION":15.26012088,"ECCENTRICITY":0.00054719,"INCLINATION":44.9758,"RA_OF_ASC_NODE":238.6688,"ARG_OF_PERICENTER":55.4463,"MEAN_ANOMALY":304.6935,"EPHEMERIS_TYPE":0,"CLASSIFICATION_TYPE":"U","NORAD_CAT_ID":44310,"ELEMENT_SET_NO":999,"REV_AT_EPOCH":37201,"BSTAR":0.00062413703,"MEAN_MOTION_DOT":0.00016103,"MEAN_MOTION_DDOT":0},{"OBJECT_NAME":"STARLINK-33670","OBJECT_ID":"2025-065Q","EPOCH":"2026-03-09T10:38:51.360864","MEAN_MOTION":15.27580361,"ECCENTRICITY":0.00017963,"INCLINATION":43.0019,"RA_OF_ASC_NODE":108.3108,"ARG_OF_PERICENTER":254.998,"MEAN_ANOMALY":105.0673,"EPHEMERIS_TYPE":0,"CLASSIFICATION_TYPE":"U","NORAD_CAT_ID":63413,"ELEMENT_SET_NO":999,"REV_AT_EPOCH":5280,"BSTAR":0.00086896719,"MEAN_MOTION_DOT":0.00023727,"MEAN_MOTION_DDOT":0}]
